DELTA 2 R/B(1)          
1 20453U 90008B   26057.84651021  .00070904  00000+0  87750-3 0  9997
2 20453  35.6027 245.9300 0087711 157.9804 202.4733 15.54306752924442
COSMOS 2058             
1 20465U 90010A   26058.05429594  .00004161  00000+0  24584-3 0  9993
2 20465  82.4667  57.9060 0010115  18.9304 341.2300 15.11210189940636
SL-14 R/B               
1 20466U 90010B   26058.09775417  .00000403  00000+0  45910-4 0  9998
2 20466  82.4996 277.3404 0019253 339.1012  20.9414 14.83558405926914
SL-14 R/B               
1 20511U 90018B   26057.90285509  .00000518  00000+0  61936-4 0  9997
2 20511  82.5186 233.1732 0017466 124.7984 235.4877 14.82130836920981
HST                     
1 20580U 90037B   26058.17585616  .00007855  00000+0  26072-3 0  9998
2 20580  28.4695 111.7119 0001389  16.2601 343.8039 15.29290967771701
SL-16 R/B               
1 20625U 90046B   26058.16412404 -.00000078  00000+0 -15492-4 0  9998
2 20625  71.0012 320.0197 0015934 313.9094  46.0712 14.15015375846900
COSMOS 2084             
1 20663U 90055A   26058.16179203  .00002945  00000+0  21660-3 0  9993
2 20663  62.7912  11.4814 0018718 187.4502 172.6323 15.05572571934735
SL-6 R/B(2)             
1 20666U 90055D   26057.66454083  .00001936  00000+0  15506-3 0  9993
2 20666  62.7828 291.3432 0023035 344.2382  15.7997 15.03534534936535
SL-8 R/B                
1 21088U 91006B   26057.43979323  .00000044  00000+0  29041-4 0  9992
2 21088  82.9461 178.4087 0023592  68.5540   0.0310 13.77492932762528
OKEAN-3                 
1 21397U 91039A   26057.77340980  .00003238  00000+0  22755-3 0  9991
2 21397  82.5199 347.4164 0014710  15.3646 344.8024 15.04715063863391
