CCSDS_OMM_VERS = 2.0
CREATION_DATE  = 
ORIGINATOR     = 

OBJECT_NAME    = DELTA 2 R/B(1)
OBJECT_ID      = 1990-008B
CENTER_NAME    = EARTH
REF_FRAME      = TEME
TIME_SYSTEM    = UTC
MEAN_ELEMENT_THEORY = SGP/SGP4

EPOCH          = 2026-02-26T20:18:58.482144
MEAN_MOTION    = 15.54306752
ECCENTRICITY   = .0087711
INCLINATION    = 35.6027
RA_OF_ASC_NODE = 245.9300
ARG_OF_PERICENTER = 157.9804
MEAN_ANOMALY   = 202.4733

EPHEMERIS_TYPE = 0
CLASSIFICATION_TYPE = U
NORAD_CAT_ID   = 20453
ELEMENT_SET_NO = 999
REV_AT_EPOCH   = 92444
BSTAR          = .8775E-3
MEAN_MOTION_DOT = .70904E-3
MEAN_MOTION_DDOT = 0

CCSDS_OMM_VERS = 2.0
CREATION_DATE  = 
ORIGINATOR     = 

OBJECT_NAME    = COSMOS 2058
OBJECT_ID      = 1990-010A
CENTER_NAME    = EARTH
REF_FRAME      = TEME
TIME_SYSTEM    = UTC
MEAN_ELEMENT_THEORY = SGP/SGP4

EPOCH          = 2026-02-27T01:18:11.169216
MEAN_MOTION    = 15.11210189
ECCENTRICITY   = .0010115
INCLINATION    = 82.4667
RA_OF_ASC_NODE = 57.9060
ARG_OF_PERICENTER = 18.9304
MEAN_ANOMALY   = 341.2300

EPHEMERIS_TYPE = 0
CLASSIFICATION_TYPE = U
NORAD_CAT_ID   = 20465
ELEMENT_SET_NO = 999
REV_AT_EPOCH   = 94063
BSTAR          = .24584E-3
MEAN_MOTION_DOT = .4161E-4
MEAN_MOTION_DDOT = 0

CCSDS_OMM_VERS = 2.0
CREATION_DATE  = 
ORIGINATOR     = 

OBJECT_NAME    = SL-14 R/B
OBJECT_ID      = 1990-010B
CENTER_NAME    = EARTH
REF_FRAME      = TEME
TIME_SYSTEM    = UTC
MEAN_ELEMENT_THEORY = SGP/SGP4

EPOCH          = 2026-02-27T02:20:45.960288
MEAN_MOTION    = 14.83558405
ECCENTRICITY   = .0019253
INCLINATION    = 82.4996
RA_OF_ASC_NODE = 277.3404
ARG_OF_PERICENTER = 339.1012
MEAN_ANOMALY   = 20.9414

EPHEMERIS_TYPE = 0
CLASSIFICATION_TYPE = U
NORAD_CAT_ID   = 20466
ELEMENT_SET_NO = 999
REV_AT_EPOCH   = 92691
BSTAR          = .4591E-4
MEAN_MOTION_DOT = .403E-5
MEAN_MOTION_DDOT = 0

CCSDS_OMM_VERS = 2.0
CREATION_DATE  = 
ORIGINATOR     = 

OBJECT_NAME    = SL-14 R/B
OBJECT_ID      = 1990-018B
CENTER_NAME    = EARTH
REF_FRAME      = TEME
TIME_SYSTEM    = UTC
MEAN_ELEMENT_THEORY = SGP/SGP4

EPOCH          = 2026-02-26T21:40:06.679776
MEAN_MOTION    = 14.82130836
ECCENTRICITY   = .0017466
INCLINATION    = 82.5186
RA_OF_ASC_NODE = 233.1732
ARG_OF_PERICENTER = 124.7984
MEAN_ANOMALY   = 235.4877

EPHEMERIS_TYPE = 0
CLASSIFICATION_TYPE = U
NORAD_CAT_ID   = 20511
ELEMENT_SET_NO = 999
REV_AT_EPOCH   = 92098
BSTAR          = .61936E-4
MEAN_MOTION_DOT = .518E-5
MEAN_MOTION_DDOT = 0

CCSDS_OMM_VERS = 2.0
CREATION_DATE  = 
ORIGINATOR     = 

OBJECT_NAME    = HST
OBJECT_ID      = 1990-037B
CENTER_NAME    = EARTH
REF_FRAME      = TEME
TIME_SYSTEM    = UTC
MEAN_ELEMENT_THEORY = SGP/SGP4

EPOCH          = 2026-02-27T04:13:13.972224
MEAN_MOTION    = 15.29290967
ECCENTRICITY   = .0001389
INCLINATION    = 28.4695
RA_OF_ASC_NODE = 111.7119
ARG_OF_PERICENTER = 16.2601
MEAN_ANOMALY   = 343.8039

EPHEMERIS_TYPE = 0
CLASSIFICATION_TYPE = U
NORAD_CAT_ID   = 20580
ELEMENT_SET_NO = 999
REV_AT_EPOCH   = 77170
BSTAR          = .26072E-3
MEAN_MOTION_DOT = .7855E-4
MEAN_MOTION_DDOT = 0

CCSDS_OMM_VERS = 2.0
CREATION_DATE  = 
ORIGINATOR     = 

OBJECT_NAME    = SL-16 R/B
OBJECT_ID      = 1990-046B
CENTER_NAME    = EARTH
REF_FRAME      = TEME
TIME_SYSTEM    = UTC
MEAN_ELEMENT_THEORY = SGP/SGP4

EPOCH          = 2026-02-27T03:56:20.317056
MEAN_MOTION    = 14.15015375
ECCENTRICITY   = .0015934
INCLINATION    = 71.0012
RA_OF_ASC_NODE = 320.0197
ARG_OF_PERICENTER = 313.9094
MEAN_ANOMALY   = 46.0712

EPHEMERIS_TYPE = 0
CLASSIFICATION_TYPE = U
NORAD_CAT_ID   = 20625
ELEMENT_SET_NO = 999
REV_AT_EPOCH   = 84690
BSTAR          = -.15492E-4
MEAN_MOTION_DOT = -.78E-6
MEAN_MOTION_DDOT = 0

CCSDS_OMM_VERS = 2.0
CREATION_DATE  = 
ORIGINATOR     = 

OBJECT_NAME    = COSMOS 2084
OBJECT_ID      = 1990-055A
CENTER_NAME    = EARTH
REF_FRAME      = TEME
TIME_SYSTEM    = UTC
MEAN_ELEMENT_THEORY = SGP/SGP4

EPOCH          = 2026-02-27T03:52:58.831392
MEAN_MOTION    = 15.05572571
ECCENTRICITY   = .0018718
INCLINATION    = 62.7912
RA_OF_ASC_NODE = 11.4814
ARG_OF_PERICENTER = 187.4502
MEAN_ANOMALY   = 172.6323

EPHEMERIS_TYPE = 0
CLASSIFICATION_TYPE = U
NORAD_CAT_ID   = 20663
ELEMENT_SET_NO = 999
REV_AT_EPOCH   = 93473
BSTAR          = .2166E-3
MEAN_MOTION_DOT = .2945E-4
MEAN_MOTION_DDOT = 0

CCSDS_OMM_VERS = 2.0
CREATION_DATE  = 
ORIGINATOR     = 

OBJECT_NAME    = SL-6 R/B(2)
OBJECT_ID      = 1990-055D
CENTER_NAME    = EARTH
REF_FRAME      = TEME
TIME_SYSTEM    = UTC
MEAN_ELEMENT_THEORY = SGP/SGP4

EPOCH          = 2026-02-26T15:56:56.327712
MEAN_MOTION    = 15.03534534
ECCENTRICITY   = .0023035
INCLINATION    = 62.7828
RA_OF_ASC_NODE = 291.3432
ARG_OF_PERICENTER = 344.2382
MEAN_ANOMALY   = 15.7997

EPHEMERIS_TYPE = 0
CLASSIFICATION_TYPE = U
NORAD_CAT_ID   = 20666
ELEMENT_SET_NO = 999
REV_AT_EPOCH   = 93653
BSTAR          = .15506E-3
MEAN_MOTION_DOT = .1936E-4
MEAN_MOTION_DDOT = 0

CCSDS_OMM_VERS = 2.0
CREATION_DATE  = 
ORIGINATOR     = 

OBJECT_NAME    = SL-8 R/B
OBJECT_ID      = 1991-006B
CENTER_NAME    = EARTH
REF_FRAME      = TEME
TIME_SYSTEM    = UTC
MEAN_ELEMENT_THEORY = SGP/SGP4

EPOCH          = 2026-02-26T10:33:18.135072
MEAN_MOTION    = 13.77492932
ECCENTRICITY   = .0023592
INCLINATION    = 82.9461
RA_OF_ASC_NODE = 178.4087
ARG_OF_PERICENTER = 68.5540
MEAN_ANOMALY   = 0.0310

EPHEMERIS_TYPE = 0
CLASSIFICATION_TYPE = U
NORAD_CAT_ID   = 21088
ELEMENT_SET_NO = 999
REV_AT_EPOCH   = 76252
BSTAR          = .29041E-4
MEAN_MOTION_DOT = .44E-6
MEAN_MOTION_DDOT = 0

CCSDS_OMM_VERS = 2.0
CREATION_DATE  = 
ORIGINATOR     = 

OBJECT_NAME    = OKEAN-3
OBJECT_ID      = 1991-039A
CENTER_NAME    = EARTH
REF_FRAME      = TEME
TIME_SYSTEM    = UTC
MEAN_ELEMENT_THEORY = SGP/SGP4

EPOCH          = 2026-02-26T18:33:42.606720
MEAN_MOTION    = 15.04715063
ECCENTRICITY   = .00147104
INCLINATION    = 82.5199
RA_OF_ASC_NODE = 347.4164
ARG_OF_PERICENTER = 15.3646
MEAN_ANOMALY   = 344.8024

EPHEMERIS_TYPE = 0
CLASSIFICATION_TYPE = U
NORAD_CAT_ID   = 21397
ELEMENT_SET_NO = 999
REV_AT_EPOCH   = 86339
BSTAR          = .22755267E-3
MEAN_MOTION_DOT = .3238E-4
MEAN_MOTION_DDOT = 0

